NORAD_CAT_ID,OBJECT_NAME,OBJECT_TYPE,EPOCH,MEAN_MOTION,ECCENTRICITY,INCLINATION,RA_OF_ASC_NODE,ARG_OF_PERICENTER,MEAN_ANOMALY,BSTAR,MEAN_MOTION_DOT,MEAN_MOTION_DDOT,TLE_LINE0,TLE_LINE1,TLE_LINE2,SEMIMAJOR_AXIS,PERIOD,APOGEE,PERIGEE,DECAYED
56780.0,STARLINK-5963,PAYLOAD,2024-01-10 10:31:30,14.98330823,0.0001828,70.0003,174.6268,270.5512,89.5438,1.6738e-05,1.07e-06,0.0,0 STARLINK-5963,1 56780U 23078P   24010.43854503  .00000107  00000-0  16738-4 0  9992,2 56780  70.0003 174.6268 0001828 270.5512  89.5438 14.98330823 34457,6950.19,96.107,573.326,570.785,0.0
56780.0,STARLINK-5963,PAYLOAD,2024-01-10 20:08:18,14.9833013,0.0001846,70.0004,173.617,271.5026,88.5921,6.8109e-06,-1.2e-07,0.0,0 STARLINK-5963,1 56780U 23078P   24010.83910556 -.00000012  00000-0  68109-5 0  9993,2 56780  70.0004 173.6170 0001846 271.5026  88.5921 14.98330130 34772,6950.192,96.107,573.34,570.774,0.0
56780.0,STARLINK-5963,PAYLOAD,2024-01-11 12:09:41,14.9830857,0.0002389,70.003,171.9381,229.7059,130.3892,-0.00020482,-2.534e-05,0.0,0 STARLINK-5963,1 56780U 23078P   24011.50672613 -.00002534  00000-0 -20482-3 0  9999,2 56780  70.0030 171.9381 0002389 229.7059 130.3892 14.98308570 34877,6950.259,96.108,573.785,570.464,0.0
56780.0,STARLINK-5963,PAYLOAD,2024-01-11 13:45:49,14.98308243,0.0002593,70.0008,171.7664,263.0864,97.0001,-0.00023926,-2.945e-05,0.0,0 STARLINK-5963,1 56780U 23078P   24011.57348884 -.00002945  00000-0 -23926-3 0  9998,2 56780  70.0008 171.7664 0002593 263.0864  97.0001 14.98308243 34627,6950.26,96.108,573.927,570.323,0.0
56780.0,STARLINK-5963,PAYLOAD,2024-01-11 20:10:21,14.98310201,0.0002841,69.9984,171.0922,270.0751,90.0083,-0.00030031,-3.672e-05,0.0,0 STARLINK-5963,1 56780U 23078P   24011.84053237 -.00003672  00000-0 -30031-3 0  9996,2 56780  69.9984 171.0922 0002841 270.0751  90.0083 14.98310201 34660,6950.254,96.108,574.094,570.145,0.0
56780.0,STARLINK-5963,PAYLOAD,2024-01-12 12:11:41,14.98322887,0.0002077,70.0006,169.4098,289.5347,70.5588,-7.0881e-06,-1.77e-06,0.0,0 STARLINK-5963,1 56780U 23078P   24012.50812465 -.00000177  00000-0 -70881-5 0  9992,2 56780  70.0006 169.4098 0002077 289.5347  70.5588 14.98322887 35027,6950.215,96.107,573.523,570.636,0.0
56780.0,STARLINK-5963,PAYLOAD,2024-01-12 13:47:50,14.98320445,0.0001618,70.0019,169.2421,281.1668,78.931,3.5294e-05,3.28e-06,0.0,0 STARLINK-5963,1 56780U 23078P   24012.57488538  .00000328  00000-0  35294-4 0  9993,2 56780  70.0019 169.2421 0001618 281.1668  78.9310 14.98320445 34777,6950.222,96.108,573.212,570.963,0.0
56780.0,STARLINK-5963,PAYLOAD,2024-01-12 20:12:21,14.98328387,0.0001737,70.001,168.5676,283.7369,76.3597,6.9895e-05,7.41e-06,0.0,0 STARLINK-5963,1 56780U 23078P   24012.84192045  .00000741  00000-0  69895-4 0  9991,2 56780  70.0010 168.5676 0001737 283.7369  76.3597 14.98328387 34817,6950.198,96.107,573.27,570.856,0.0
56780.0,STARLINK-5963,PAYLOAD,2024-01-13 13:49:49,14.98326005,0.0002697,69.9987,166.7155,274.2814,85.8037,0.00036049,4.21e-05,0.0,0 STARLINK-5963,1 56780U 23078P   24013.57627152  .00004210  00000-0  36049-3 0  9993,2 56780  69.9987 166.7155 0002697 274.2814  85.8037 14.98326005 34926,6950.205,96.107,573.945,570.196,0.0
56780.0,STARLINK-5963,PAYLOAD,2024-01-13 20:14:22,14.98320698,0.0002935,69.9984,166.0425,269.2542,90.828,0.00024761,2.862e-05,0.0,0 STARLINK-5963,1 56780U 23078P   24013.84331883  .00002862  00000-0  24761-3 0  9995,2 56780  69.9984 166.0425 0002935 269.2542  90.8280 14.98320698 35225,6950.222,96.108,574.127,570.047,0.0
56780.0,STARLINK-5963,PAYLOAD,2024-01-14 12:15:42,14.98341022,0.0002663,69.9993,164.359,275.1825,84.903,2.0866e-05,1.56e-06,0.0,0 STARLINK-5963,1 56780U 23078P   24014.51091298  .00000156  00000-0  20866-4 0  9990,2 56780  69.9993 164.3590 0002663 275.1825  84.9030 14.98341022 35329,6950.159,96.106,573.875,570.173,0.0
56780.0,STARLINK-5963,PAYLOAD,2024-01-14 13:51:50,14.98339607,0.0002677,69.9987,164.1909,274.2024,85.8829,5.5947e-05,5.75e-06,0.0,0 STARLINK-5963,1 56780U 23078P   24014.57767236  .00000575  00000-0  55947-4 0  9991,2 56780  69.9987 164.1909 0002677 274.2024  85.8829 14.98339607 35074,6950.163,96.106,573.889,570.168,0.0
56780.0,STARLINK-5963,PAYLOAD,2024-01-14 20:16:23,14.98339245,0.00029,69.9987,163.5175,275.9564,84.1265,2.9278e-05,2.56e-06,0.0,0 STARLINK-5963,1 56780U 23078P   24014.84471136  .00000256  00000-0  29278-4 0  9996,2 56780  69.9987 163.5175 0002900 275.9564  84.1265 14.98339245 35117,6950.164,96.106,574.045,570.014,0.0
56780.0,STARLINK-5963,PAYLOAD,2024-01-15 12:17:43,14.98339662,0.0002781,69.9992,161.835,274.5348,85.5493,-1.8038e-05,-3.08e-06,0.0,0 STARLINK-5963,1 56780U 23078P   24015.51230756 -.00000308  00000-0 -18038-4 0  9994,2 56780  69.9992 161.8350 0002781 274.5348  85.5493 14.98339662 35471,6950.163,96.106,573.961,570.095,0.0
56780.0,STARLINK-5963,PAYLOAD,2024-01-15 13:53:51,14.98347198,0.0002716,69.9994,161.6667,276.4154,83.6695,-0.00010347,-1.328e-05,0.0,0 STARLINK-5963,1 56780U 23078P   24015.57906520 -.00001328  00000-0 -10347-3 0  9996,2 56780  69.9994 161.6667 0002716 276.4154  83.6695 14.98347198 35225,6950.14,96.106,573.892,570.117,0.0
56780.0,STARLINK-5963,PAYLOAD,2024-01-15 18:42:14,14.98357374,0.0002834,69.9996,161.1616,281.4189,78.6651,-7.1015e-05,-9.41e-06,0.0,0 STARLINK-5963,1 56780U 23078P   24015.77933533 -.00000941  00000-0 -71015-4 0  9992,2 56780  69.9996 161.1616 0002834 281.4189  78.6651 14.98357374 35516,6950.108,96.105,573.943,570.004,0.0
56780.0,STARLINK-5963,PAYLOAD,2024-01-16 12:19:44,14.98348373,0.000213,70.0005,159.3103,272.1937,87.8978,-0.0003013,-3.688e-05,0.0,0 STARLINK-5963,1 56780U 23078P   24016.51370471 -.00003688  00000-0 -30130-3 0  9994,2 56780  70.0005 159.3103 0002130 272.1937  87.8978 14.98348373 35622,6950.136,96.106,573.481,570.521,0.0
56780.0,STARLINK-5963,PAYLOAD,2024-01-16 13:55:52,14.98337257,0.0002107,70.0005,159.142,271.3645,88.7273,-0.00012026,-1.528e-05,0.0,0 STARLINK-5963,1 56780U 23078P   24016.58046580 -.00001528  00000-0 -12026-3 0  9997,2 56780  70.0005 159.1420 0002107 271.3645  88.7273 14.98337257 35372,6950.17,96.107,573.5,570.571,0.0
56780.0,STARLINK-5963,PAYLOAD,2024-01-16 18:44:17,14.9826383,0.0001872,70.0004,158.6371,281.3248,78.7701,0.0011702,0.00013873,0.0,0 STARLINK-5963,1 56780U 23078P   24016.78076246  .00013873  00000-0  11702-2 0  9994,2 56780  70.0004 158.6371 0001872 281.3248  78.7701 14.98263830 35660,6950.398,96.111,573.564,570.961,0.0
56780.0,STARLINK-5963,PAYLOAD,2024-01-17 12:21:45,14.98328341,0.0002245,70.0003,156.7859,272.4918,87.5984,-0.00015897,-1.989e-05,0.0,0 STARLINK-5963,1 56780U 23078P   24017.51511139 -.00001989  00000-0 -15897-3 0  9998,2 56780  70.0003 156.7859 0002245 272.4918  87.5984 14.98328341 35771,6950.198,96.107,573.623,570.503,0.0
56780.0,STARLINK-5963,PAYLOAD,2024-01-17 13:57:53,14.98327166,0.0002203,70.0004,156.6177,271.8355,88.2552,-0.00014692,-1.845e-05,0.0,0 STARLINK-5963,1 56780U 23078P   24017.58187186 -.00001845  00000-0 -14692-3 0  9999,2 56780  70.0004 156.6177 0002203 271.8355  88.2552 14.98327166 35522,6950.202,96.107,573.598,570.536,0.0
56780.0,STARLINK-5963,PAYLOAD,2024-01-17 18:46:17,14.98330384,0.0002275,70.0005,156.1131,274.737,85.3529,-0.00010103,-1.298e-05,0.0,0 STARLINK-5963,1 56780U 23078P   24017.78214866 -.00001298  00000-0 -10103-3 0  9992,2 56780  70.0005 156.1131 0002275 274.7370  85.3529 14.98330384 35557,6950.192,96.107,573.638,570.476,0.0
56780.0,STARLINK-5963,PAYLOAD,2024-01-18 12:23:45,14.98333686,0.0002203,70.0007,154.262,265.2896,94.8011,6.3941e-05,6.7e-06,0.0,0 STARLINK-5963,1 56780U 23078P   24018.51650024  .00000670  00000-0  63941-4 0  9994,2 56780  70.0007 154.2620 0002203 265.2896  94.8011 14.98333686 35920,6950.181,96.107,573.578,570.515,0.0
56780.0,STARLINK-5963,PAYLOAD,2024-01-18 13:59:53,14.98333689,0.0002206,70.0008,154.0937,265.3767,94.714,6.3137e-05,6.61e-06,0.0,0 STARLINK-5963,1 56780U 23078P   24018.58326014  .00000661  00000-0  63137-4 0  9997,2 56780  70.0008 154.0937 0002206 265.3767  94.7140 14.98333689 35678,6950.181,96.107,573.58,570.513,0.0
56780.0,STARLINK-5963,PAYLOAD,2024-01-18 18:48:17,14.98336404,0.0002195,70.0009,153.5892,265.5007,94.5901,9.0865e-05,9.92e-06,0.0,0 STARLINK-5963,1 56780U 23078P   24018.78353714  .00000992  00000-0  90865-4 0  9991,2 56780  70.0009 153.5892 0002195 265.5007  94.5901 14.98336404 35704,6950.173,96.107,573.564,570.513,0.0
56780.0,STARLINK-5963,PAYLOAD,2024-01-19 12:25:46,14.9832913,0.0002243,70.001,151.7368,263.6293,96.461,4.4194e-05,4.34e-06,0.0,0 STARLINK-5963,1 56780U 23078P   24019.51790177  .00000434  00000-0  44194-4 0  9996,2 56780  70.0010 151.7368 0002243 263.6293  96.4610 14.98329130 36071,6950.196,96.107,573.62,570.502,0.0
56780.0,STARLINK-5963,PAYLOAD,2024-01-19 14:01:54,14.98327443,0.0002162,70.0012,151.5685,262.9733,97.1181,7.3639e-05,7.86e-06,0.0,0 STARLINK-5963,1 56780U 23078P   24019.58466194  .00000786  00000-0  73639-4 0  9998,2 56780  70.0012 151.5685 0002162 262.9733  97.1181 14.98327443 35822,6950.201,96.107,573.568,570.563,0.0
56780.0,STARLINK-5963,PAYLOAD,2024-01-19 18:50:18,14.98331177,0.0002018,70.0016,151.064,251.3587,108.7353,0.00010279,1.134e-05,0.0,0 STARLINK-5963,1 56780U 23078P   24019.78493866  .00001134  00000-0  10279-3 0  9994,2 56780  70.0016 151.0640 0002018 251.3587 108.7353 14.98331177 35853,6950.189,96.107,573.457,570.652,0.0
56780.0,STARLINK-5963,PAYLOAD,2024-01-20 14:03:55,14.9834584,0.0002069,70.0017,149.0441,257.5783,102.5144,-0.00040858,-4.966e-05,0.0,0 STARLINK-5963,1 56780U 23078P   24020.58606287 -.00004966  00000-0 -40858-3 0  9991,2 56780  70.0017 149.0441 0002069 257.5783 102.5144 14.98345840 35977,6950.144,96.106,573.447,570.571,0.0
56780.0,STARLINK-5963,PAYLOAD,2024-01-20 18:52:20,14.98326929,0.0002113,70.0019,148.5394,259.4797,100.6124,-6.9634e-05,-9.23e-06,0.0,0 STARLINK-5963,1 56780U 23078P   24020.78634559 -.00000923  00000-0 -69634-4 0  9999,2 56780  70.0019 148.5394 0002113 259.4797 100.6124 14.98326929 36263,6950.202,96.107,573.536,570.599,0.0
